STARLINK-1490
1 25777C 20038AZ  21325.17411563  .00003007  00000-0  20156-3 0  3254
2 25777  53.0550  42.4565 0001328  77.6360 173.3995 15.06385431    13
